{
  "type": "FeatureCollection",
  "features": [
    {
      "type": "Feature",
      "properties": {
        "norad_id": 36550,
        "name": "COSMOS 2251 DEB",
        "group": "cosmos-2251-debris",
        "lat": -22.873321345718015,
        "lon": 163.05389396852684,
        "alt_km": 832.315689748425,
        "timestamp": "2025-12-25T07:41:10.120718+00:00",
        "meta_object_name": "COSMOS 2251 DEB",
        "meta_object_id": "1993-036BDL",
        "meta_epoch": "2025-12-23T05:19:51.847104",
        "meta_mean_motion": 14.27229725,
        "meta_eccentricity": 0.00778519,
        "meta_inclination": 74.0443,
        "meta_ra_of_asc_node": 173.7801,
        "meta_arg_of_pericenter": 222.1192,
        "meta_mean_anomaly": 137.3958,
        "meta_ephemeris_type": 0,
        "meta_classification_type": "U",
        "meta_norad_cat_id": 36550,
        "meta_element_set_no": 999,
        "meta_rev_at_epoch": 84745,
        "meta_bstar": 0.00062346046,
        "meta_mean_motion_dot": 1.548e-05,
        "meta_mean_motion_ddot": 0,
        "tle_line1": "1 36550U 93036BDL 25357.22212786  .00001548  00000+0  62346-3 0  9993",
        "tle_line2": "2 36550  74.0443 173.7801 0077851 222.1192 137.3958 14.27229725847452"
      },
      "geometry": {
        "type": "Point",
        "coordinates": [
          163.05389396852684,
          -22.873321345718015
        ]
      }
    },
    {
      "type": "Feature",
      "properties": {
        "norad_id": 36551,
        "name": "COSMOS 2251 DEB",
        "group": "cosmos-2251-debris",
        "lat": -28.339605723232776,
        "lon": 177.75926081665867,
        "alt_km": 560.7681434927872,
        "timestamp": "2025-12-25T07:41:10.120728+00:00",
        "meta_object_name": "COSMOS 2251 DEB",
        "meta_object_id": "1993-036BDM",
        "meta_epoch": "2025-12-23T08:25:21.362880",
        "meta_mean_motion": 15.02881194,
        "meta_eccentricity": 0.00509794,
        "meta_inclination": 73.8872,
        "meta_ra_of_asc_node": 352.8451,
        "meta_arg_of_pericenter": 300.1612,
        "meta_mean_anomaly": 59.4529,
        "meta_ephemeris_type": 0,
        "meta_classification_type": "U",
        "meta_norad_cat_id": 36551,
        "meta_element_set_no": 999,
        "meta_rev_at_epoch": 67091,
        "meta_bstar": 0.0013038883,
        "meta_mean_motion_dot": 0.00017997,
        "meta_mean_motion_ddot": 0,
        "tle_line1": "1 36551U 93036BDM 25357.35094170  .00017997  00000+0  13039-2 0  9992",
        "tle_line2": "2 36551  73.8872 352.8451 0050979 300.1612  59.4529 15.02881194670914"
      },
      "geometry": {
        "type": "Point",
        "coordinates": [
          177.75926081665867,
          -28.339605723232776
        ]
      }
    },
    {
      "type": "Feature",
      "properties": {
        "norad_id": 36557,
        "name": "COSMOS 2251 DEB",
        "group": "cosmos-2251-debris",
        "lat": 3.2862697399725986,
        "lon": -79.49980231237292,
        "alt_km": 631.8310700231077,
        "timestamp": "2025-12-25T07:41:10.120738+00:00",
        "meta_object_name": "COSMOS 2251 DEB",
        "meta_object_id": "1993-036BDT",
        "meta_epoch": "2025-12-22T00:57:08.479008",
        "meta_mean_motion": 14.78653832,
        "meta_eccentricity": 0.00212002,
        "meta_inclination": 73.9802,
        "meta_ra_of_asc_node": 107.9136,
        "meta_arg_of_pericenter": 260.6795,
        "meta_mean_anomaly": 99.1983,
        "meta_ephemeris_type": 0,
        "meta_classification_type": "U",
        "meta_norad_cat_id": 36557,
        "meta_element_set_no": 999,
        "meta_rev_at_epoch": 34034,
        "meta_bstar": 0.0038224462,
        "meta_mean_motion_dot": 0.00028203,
        "meta_mean_motion_ddot": 0,
        "tle_line1": "1 36557U 93036BDT 25356.03968147  .00028203  00000+0  38224-2 0  9991",
        "tle_line2": "2 36557  73.9802 107.9136 0021200 260.6795  99.1983 14.78653832340344"
      },
      "geometry": {
        "type": "Point",
        "coordinates": [
          -79.49980231237292,
          3.2862697399725986
        ]
      }
    },
    {
      "type": "Feature",
      "properties": {
        "norad_id": 36558,
        "name": "COSMOS 2251 DEB",
        "group": "cosmos-2251-debris",
        "lat": 30.10640067717103,
        "lon": -58.82429467892982,
        "alt_km": 703.0491638026724,
        "timestamp": "2025-12-25T07:41:10.120748+00:00",
        "meta_object_name": "COSMOS 2251 DEB",
        "meta_object_id": "1993-036BDU",
        "meta_epoch": "2025-12-23T15:24:48.606336",
        "meta_mean_motion": 14.55435357,
        "meta_eccentricity": 0.00125723,
        "meta_inclination": 74.043,
        "meta_ra_of_asc_node": 133.9013,
        "meta_arg_of_pericenter": 222.7204,
        "meta_mean_anomaly": 137.2983,
        "meta_ephemeris_type": 0,
        "meta_classification_type": "U",
        "meta_norad_cat_id": 36558,
        "meta_element_set_no": 999,
        "meta_rev_at_epoch": 85427,
        "meta_bstar": 0.00094757292,
        "meta_mean_motion_dot": 4.097e-05,
        "meta_mean_motion_ddot": 0,
        "tle_line1": "1 36558U 93036BDU 25357.64222924  .00004097  00000+0  94757-3 0  9995",
        "tle_line2": "2 36558  74.0430 133.9013 0012572 222.7204 137.2983 14.55435357854274"
      },
      "geometry": {
        "type": "Point",
        "coordinates": [
          -58.82429467892982,
          30.10640067717103
        ]
      }
    },
    {
      "type": "Feature",
      "properties": {
        "norad_id": 36559,
        "name": "COSMOS 2251 DEB",
        "group": "cosmos-2251-debris",
        "lat": 35.31236420548085,
        "lon": 156.6896620166198,
        "alt_km": 1014.4873973922067,
        "timestamp": "2025-12-25T07:41:10.120758+00:00",
        "meta_object_name": "COSMOS 2251 DEB",
        "meta_object_id": "1993-036BDV",
        "meta_epoch": "2025-12-20T23:46:37.184160",
        "meta_mean_motion": 13.9527233,
        "meta_eccentricity": 0.0261353,
        "meta_inclination": 74.1312,
        "meta_ra_of_asc_node": 355.7104,
        "meta_arg_of_pericenter": 25.9739,
        "meta_mean_anomaly": 335.4239,
        "meta_ephemeris_type": 0,
        "meta_classification_type": "U",
        "meta_norad_cat_id": 36559,
        "meta_element_set_no": 999,
        "meta_rev_at_epoch": 81209,
        "meta_bstar": 0.0030098689,
        "meta_mean_motion_dot": 5.397e-05,
        "meta_mean_motion_ddot": 0,
        "tle_line1": "1 36559U 93036BDV 25354.99070815  .00005397  00000+0  30099-2 0  9993",
        "tle_line2": "2 36559  74.1312 355.7104 0261353  25.9739 335.4239 13.95272330812092"
      },
      "geometry": {
        "type": "Point",
        "coordinates": [
          156.6896620166198,
          35.31236420548085
        ]
      }
    },
    {
      "type": "Feature",
      "properties": {
        "norad_id": 36614,
        "name": "COSMOS 2251 DEB",
        "group": "cosmos-2251-debris",
        "lat": 27.581148168037483,
        "lon": 159.1550745304556,
        "alt_km": 701.1389579952456,
        "timestamp": "2025-12-25T07:41:10.120768+00:00",
        "meta_object_name": "COSMOS 2251 DEB",
        "meta_object_id": "1993-036BEC",
        "meta_epoch": "2025-12-24T03:36:20.359296",
        "meta_mean_motion": 14.60407947,
        "meta_eccentricity": 0.00156222,
        "meta_inclination": 74.0227,
        "meta_ra_of_asc_node": 152.7827,
        "meta_arg_of_pericenter": 222.6098,
        "meta_mean_anomaly": 137.3857,
        "meta_ephemeris_type": 0,
        "meta_classification_type": "U",
        "meta_norad_cat_id": 36614,
        "meta_element_set_no": 999,
        "meta_rev_at_epoch": 65779,
        "meta_bstar": 0.0017157176,
        "meta_mean_motion_dot": 8.302e-05,
        "meta_mean_motion_ddot": 0,
        "tle_line1": "1 36614U 93036BEC 25358.15023564  .00008302  00000+0  17157-2 0  9995",
        "tle_line2": "2 36614  74.0227 152.7827 0015622 222.6098 137.3857 14.60407947657791"
      },
      "geometry": {
        "type": "Point",
        "coordinates": [
          159.1550745304556,
          27.581148168037483
        ]
      }
    },
    {
      "type": "Feature",
      "properties": {
        "norad_id": 36622,
        "name": "COSMOS 2251 DEB",
        "group": "cosmos-2251-debris",
        "lat": 73.70168596945676,
        "lon": -137.82765348987826,
        "alt_km": 679.143049643505,
        "timestamp": "2025-12-25T07:41:10.120778+00:00",
        "meta_object_name": "COSMOS 2251 DEB",
        "meta_object_id": "1993-036BEL",
        "meta_epoch": "2025-12-24T01:59:12.142752",
        "meta_mean_motion": 14.76299213,
        "meta_eccentricity": 0.00689018,
        "meta_inclination": 74.0149,
        "meta_ra_of_asc_node": 123.2338,
        "meta_arg_of_pericenter": 256.4441,
        "meta_mean_anomaly": 102.9052,
        "meta_ephemeris_type": 0,
        "meta_classification_type": "U",
        "meta_norad_cat_id": 36622,
        "meta_element_set_no": 999,
        "meta_rev_at_epoch": 66917,
        "meta_bstar": 0.00077654532,
        "meta_mean_motion_dot": 5.567e-05,
        "meta_mean_motion_ddot": 0,
        "tle_line1": "1 36622U 93036BEL 25358.08277943  .00005567  00000+0  77655-3 0  9998",
        "tle_line2": "2 36622  74.0149 123.2338 0068901 256.4441 102.9052 14.76299213669170"
      },
      "geometry": {
        "type": "Point",
        "coordinates": [
          -137.82765348987826,
          73.70168596945676
        ]
      }
    }
  ]
}